{"type":"FeatureCollection","features":[{"type":"Feature","properties":{"name":"Rhine"},"geometry":{"type":"MultiLineString","coordinates":[[[8.229991,48.965399],[8.26238,48.988349],[8.283458,49.009833],[8.356944,49.109442],[8.361339,49.119452],[8.380544,49.214708],[8.387136,49.231879],[8.39796,49.239122],[8.410655,49.243516],[8.479747,49.29682],[8.483328,49.309394],[8.459727,49.314887],[8.461681,49.32331],[8.497569,49.376288],[8.497488,49.386339],[8.490977,49.402899],[8.490001,49.411078],[8.491873,49.413031],[8.501394,49.429023],[8.504405,49.430935],[8.493663,49.442491],[8.477712,49.446234],[8.459402,49.447618],[8.442312,49.452012],[8.442312,49.458848],[8.46339,49.465684],[8.46339,49.47252],[8.449962,49.491075],[8.427501,49.534044],[8.408214,49.55504],[8.416677,49.579291],[8.399832,49.610216],[8.375255,49.640937],[8.360362,49.664333],[8.362071,49.690741],[8.378917,49.710273],[8.406261,49.722276],[8.438894,49.726386],[8.460623,49.743598],[8.473643,49.75727],[8.476492,49.767361],[8.462413,49.770941],[8.442068,49.76789],[8.423595,49.767157],[8.415701,49.777615],[8.413585,49.784532],[8.408458,49.792548],[8.389659,49.815131],[8.386241,49.823676],[8.384044,49.832139],[8.380138,49.842393],[8.370291,49.856472],[8.347423,49.878363],[8.339854,49.890896],[8.354991,49.925482],[8.335216,49.959499],[8.227957,50.038031],[8.21282,50.044257],[8.200613,50.046169],[8.173595,50.045681],[8.04835,50.018256],[8.009532,49.999132],[7.961681,49.982978],[7.918468,49.973741],[7.87794,49.972846],[7.860118,49.989854],[7.857188,50.002468],[7.84962,50.010565],[7.784923,50.048367],[7.765147,50.063666],[7.757091,50.086127],[7.752371,50.092963],[7.730154,50.113349],[7.722911,50.123603],[7.724294,50.144639],[7.7199,50.158393],[7.706065,50.164618],[7.693044,50.166856],[7.651296,50.178819],[7.642996,50.184678],[7.624278,50.213935],[7.613048,50.22602],[7.588145,50.240912],[7.579275,50.249945],[7.588552,50.253974],[7.621837,50.253852],[7.636485,50.255723],[7.647878,50.26081],[7.647878,50.267646],[7.615896,50.286892],[7.601003,50.300482],[7.59197,50.315456],[7.591238,50.332221],[7.597179,50.347968],[7.605968,50.364366],[7.613048,50.383653],[7.580821,50.41116],[7.54363,50.417548],[7.503429,50.417507],[7.46282,50.42532],[7.398448,50.449774],[7.387218,50.449164],[7.33253,50.486762],[7.269298,50.56684],[7.243093,50.582953],[7.223318,50.589179],[7.213308,50.595811]]]}}]}