{"type":"FeatureCollection","features":[{"type":"Feature","properties":{"name":"Alzey-Worms","type":"Landkreise"},"geometry":{"type":"Polygon","coordinates":[[[7.969968795776424,49.82844161987316],[7.992839813232536,49.8254013061524],[8.004139900207633,49.829460144043026],[7.997799873352108,49.84027862548834],[8.066398620605412,49.86127090454113],[8.054109573364258,49.87939071655285],[8.065548896789664,49.883510589599666],[8.186770439148006,49.89505004882818],[8.223080635070914,49.851821899414176],[8.194609642028809,49.83977127075195],[8.201088905334416,49.821491241455135],[8.241648674011287,49.81914138793945],[8.23095989227295,49.796611785888786],[8.237909317016715,49.76729202270508],[8.29638862609869,49.74705123901367],[8.31818866729742,49.780979156494084],[8.364330291748104,49.782451629638786],[8.409860610961971,49.80229949951172],[8.428420066833496,49.765998840332145],[8.486090660095272,49.76776885986328],[8.486449241638184,49.75674057006847],[8.452719688415584,49.72991180419933],[8.354668617248535,49.73049163818371],[8.350709915161133,49.682441711425895],[8.264260292053223,49.6870002746582],[8.258978843689079,49.675781250000114],[8.282859802246207,49.654441833496094],[8.248629570007267,49.64963912963873],[8.244028091430607,49.62371063232433],[8.262658119201774,49.59117126464844],[8.239969253540153,49.586769104003906],[8.20987987518322,49.61893081665045],[8.158289909362793,49.62097930908209],[8.162210464477482,49.65790176391613],[8.127349853515682,49.66783905029297],[8.108720779419002,49.696701049804744],[8.06320858001709,49.69163131713873],[8.0169095993042,49.70499038696295],[7.978159904479924,49.692859649658146],[7.966499805450496,49.69987869262707],[7.976610183715763,49.718528747558594],[7.942070007324219,49.73233032226568],[7.95779895782465,49.75107192993164],[7.913070201873836,49.74645996093756],[7.945229053497314,49.77281951904308],[7.932118892669791,49.80207061767578],[7.969968795776424,49.82844161987316]]]}},{"type":"Feature","properties":{"name":"Bad Dürkheim","type":"Landkreise"},"geometry":{"type":"Polygon","coordinates":[[[8.262658119201774,49.59117126464844],[8.28567981719965,49.58824157714838],[8.287618637084904,49.54415893554699],[8.25946044921875,49.53588867187506],[8.278238296508789,49.499721527099666],[8.25070762634283,49.48041915893555],[8.273599624633732,49.47748947143566],[8.286358833313045,49.44847106933594],[8.235748291015739,49.43941116333008],[8.236509323120117,49.42469024658209],[8.259319305420036,49.42177200317394],[8.277779579162598,49.392910003662166],[8.266669273376465,49.388839721679744],[8.30149936676031,49.371620178222656],[8.315838813781738,49.313091278076286],[8.230069160461483,49.33586883544933],[8.217780113220329,49.353931427001896],[8.22758865356451,49.38011932373058],[8.136268615722656,49.399250030517635],[8.126129150390625,49.38045120239258],[8.103019714355412,49.39081192016607],[8.098489761352482,49.37220001220703],[8.10994911193842,49.36886215209961],[8.099150657653922,49.36112976074219],[7.993050098419303,49.34339141845703],[7.943479061126709,49.320079803466854],[7.94408988952631,49.30902862548828],[7.875979900360164,49.31137084960943],[7.851930141449088,49.33673095703125],[7.835329055786133,49.329059600830135],[7.839408874511832,49.358612060546875],[7.92241907119751,49.39336013793957],[7.9510498046875,49.38663864135748],[7.97298002243042,49.39823150634777],[7.955029010772648,49.416229248046875],[8.010490417480582,49.432392120361385],[7.970668792724666,49.438732147216854],[7.956669807434025,49.48627090454113],[8.017861366271973,49.49895095825195],[8.066039085388184,49.540901184082145],[8.104940414428711,49.55313110351574],[8.092378616333121,49.5748405456543],[8.12035083770752,49.58304214477539],[8.11425876617443,49.59022140502941],[8.152398109436149,49.624469757080135],[8.20987987518322,49.61893081665045],[8.239969253540153,49.586769104003906],[8.262658119201774,49.59117126464844]]]}},{"type":"Feature","properties":{"name":"Donnersbergkreis","type":"Landkreise"},"geometry":{"type":"Polygon","coordinates":[[[7.912839889526367,49.75014114379883],[7.930389881134033,49.73942184448242],[7.95779895782465,49.75107192993164],[7.942070007324219,49.73233032226568],[7.976610183715763,49.718528747558594],[7.966499805450496,49.69987869262707],[7.978159904479924,49.692859649658146],[8.0169095993042,49.70499038696295],[8.06320858001709,49.69163131713873],[8.108720779419002,49.696701049804744],[8.168819427490291,49.639709472656364],[8.130350112914982,49.60908889770519],[8.12035083770752,49.58304214477539],[8.092378616333121,49.5748405456543],[8.104940414428711,49.55313110351574],[7.995819091796989,49.49097061157232],[7.962090015411434,49.49008941650396],[7.954770088195801,49.51935958862305],[7.965370178222656,49.530681610107536],[7.914558887481689,49.53313064575201],[7.84233999252325,49.51330184936529],[7.852999210357666,49.52452850341808],[7.812737941741943,49.53852081298828],[7.77929878234869,49.53055953979492],[7.772879123687858,49.54516983032232],[7.794839859008732,49.556591033935604],[7.788609027862606,49.56750869750988],[7.708609104156608,49.588111877441406],[7.719120979309139,49.603012084960994],[7.706929206848201,49.621158599853516],[7.734827995300293,49.625358581543026],[7.728381156921444,49.63996887207031],[7.739599227905387,49.640178680420036],[7.710339069366455,49.65814208984381],[7.747200012207088,49.69586181640625],[7.734220027923584,49.718158721923885],[7.777618885040283,49.74468994140625],[7.770779132842961,49.75965118408209],[7.833899974823055,49.74901962280279],[7.872428894042912,49.7643394470216],[7.912839889526367,49.75014114379883]]]}},{"type":"Feature","properties":{"name":"Frankenthal Städte","type":"Kreisfreie Städte"},"geometry":{"type":"Polygon","coordinates":[[[8.424960136413631,49.541358947753906],[8.396109580993766,49.54774856567383],[8.369499206542969,49.499069213867244],[8.31305027008051,49.486148834228516],[8.311410903930664,49.522869110107536],[8.327879905700627,49.538120269775504],[8.315838813781738,49.552452087402344],[8.344539642334098,49.549709320068416],[8.36077880859375,49.572319030761776],[8.38967037200922,49.56592178344732],[8.411858558654728,49.58504867553722],[8.424960136413631,49.541358947753906]]]}},{"type":"Feature","properties":{"name":"Germersheim","type":"Landkreise"},"geometry":{"type":"Polygon","coordinates":[[[8.414708137512264,49.254032135009766],[8.38765907287592,49.23448181152344],[8.405288696289176,49.22035217285156],[8.369058609008846,49.170650482177734],[8.362239837646541,49.09968948364258],[8.314449310302678,49.05699920654308],[8.295299530029354,49.00415039062506],[8.268489837646428,48.984619140625],[8.241430282592887,48.96884155273443],[8.202865600585994,48.96935653686535],[8.061146736145133,49.00483703613281],[8.074590682983398,49.00157928466797],[8.07929897308361,49.02017974853527],[8.076898574829215,49.0644912719726],[8.060070037841797,49.060420989990234],[8.059249877929744,49.07518005371094],[8.109649658203239,49.087532043457145],[8.103348731994686,49.098480224609375],[8.125749588012809,49.102798461914176],[8.12399959564209,49.13240051269531],[8.168898582458553,49.13745117187506],[8.215768814087028,49.10927963256836],[8.225858688354492,49.128189086914006],[8.265118598937988,49.12958908081066],[8.262369155883789,49.17403030395519],[8.217498779296875,49.172431945800895],[8.22084045410162,49.20962905883795],[8.24327754974371,49.210418701171875],[8.234490394592285,49.26200103759771],[8.25128078460699,49.26261138916027],[8.250379562378043,49.2774009704591],[8.327879905700627,49.29875946044922],[8.414708137512264,49.254032135009766]]]}},{"type":"Feature","properties":{"name":"Kaiserslautern Städte","type":"Kreisfreie Städte"},"geometry":{"type":"Polygon","coordinates":[[[7.855998992919922,49.36627197265625],[7.822228908538818,49.36198043823242],[7.774980068206844,49.397991180419865],[7.718338966369572,49.39702224731457],[7.707559108734245,49.38579177856445],[7.67126989364624,49.42937088012701],[7.637290000915527,49.42517089843744],[7.636709213256893,49.43619918823242],[7.658769130706787,49.451240539550895],[7.715879917144889,49.44483184814453],[7.686620235443172,49.46273040771496],[7.690989017486686,49.488559722900504],[7.707590103149471,49.496189117431754],[7.748319149017334,49.47484207153332],[7.765268802642822,49.47512054443371],[7.764489173889103,49.4898414611817],[7.809868812561149,49.486949920654354],[7.805210113525391,49.468471527099666],[7.850598812103271,49.46559906005854],[7.868349075317383,49.4511985778808],[7.876218795776367,49.410839080810604],[7.820459842681998,49.39509963989269],[7.826899051666317,49.380489349365234],[7.838029861450252,49.384368896484375],[7.83295917510992,49.373229980468864],[7.855998992919922,49.36627197265625]]]}},{"type":"Feature","properties":{"name":"Kaiserslautern","type":"Landkreise"},"geometry":{"type":"Polygon","coordinates":[[[7.708609104156608,49.588111877441406],[7.788609027862606,49.56750869750988],[7.794839859008732,49.556591033935604],[7.772879123687858,49.54516983032232],[7.77929878234869,49.53055953979492],[7.812737941741943,49.53852081298828],[7.852999210357666,49.52452850341808],[7.84233999252325,49.51330184936529],[7.914558887481689,49.53313064575201],[7.965370178222656,49.530681610107536],[7.954770088195801,49.51935958862305],[7.962090015411434,49.49008941650396],[7.97334003448492,49.49037933349621],[7.956669807434025,49.48627090454113],[7.958148956298942,49.46052169799816],[7.970668792724666,49.438732147216854],[8.010490417480582,49.432392120361385],[7.955029010772648,49.416229248046875],[7.97298002243042,49.39823150634777],[7.9510498046875,49.38663864135748],[7.92241907119751,49.39336013793957],[7.855998992919922,49.36627197265625],[7.83295917510992,49.373229980468864],[7.838029861450252,49.384368896484375],[7.826899051666317,49.380489349365234],[7.820459842681998,49.39509963989269],[7.876218795776367,49.410839080810604],[7.868349075317383,49.4511985778808],[7.850598812103271,49.46559906005854],[7.805210113525391,49.468471527099666],[7.809868812561149,49.486949920654354],[7.764489173889103,49.4898414611817],[7.765268802642822,49.47512054443371],[7.748319149017334,49.47484207153332],[7.707590103149471,49.496189117431754],[7.690989017486686,49.488559722900504],[7.686620235443172,49.46273040771496],[7.715879917144889,49.44483184814453],[7.641849040985107,49.44731903076172],[7.637290000915527,49.42517089843744],[7.67126989364624,49.42937088012701],[7.707559108734245,49.38579177856445],[7.718338966369572,49.39702224731457],[7.774980068206844,49.397991180419865],[7.839408874511832,49.358612060546875],[7.829071044921932,49.340011596679744],[7.841389179229736,49.321788787841854],[7.807970046997184,49.31016159057623],[7.773560047149658,49.3169212341308],[7.772018909454289,49.34637069702154],[7.676137924194336,49.33372116088867],[7.675580024719238,49.344760894775504],[7.635769844055233,49.344139099121094],[7.634829044342098,49.362541198730526],[7.611801147460994,49.36587905883795],[7.611030101776123,49.38061141967785],[7.582619190216008,49.37652969360357],[7.566629886627311,49.35420989990229],[7.527328968048096,49.33895874023432],[7.508829116821346,49.3608512878418],[7.486690044403133,49.34584045410156],[7.403889179229793,49.37784194946295],[7.397388935089111,49.388771057128906],[7.414450168609676,49.392791748046875],[7.402659893035889,49.39625930786144],[7.429561138153076,49.42626190185558],[7.417738914489746,49.42974853515619],[7.469150066375846,49.44157028198248],[7.456069946289062,49.46356201171875],[7.488540172577018,49.50080108642584],[7.523018836975041,49.508499145507926],[7.53908014297491,49.53078079223633],[7.55718994140625,49.519901275634766],[7.620580196380672,49.524299621582145],[7.67045879364025,49.55807876586914],[7.675610065460148,49.569179534912166],[7.652399063110352,49.57619094848633],[7.663139820098877,49.59101867675787],[7.708609104156608,49.588111877441406]]]}},{"type":"Feature","properties":{"name":"Kusel","type":"Landkreise"},"geometry":{"type":"Polygon","coordinates":[[[7.532070159912053,49.712162017822266],[7.610548973083496,49.67943954467779],[7.672510147094783,49.70270156860357],[7.685268878936824,49.68782043457031],[7.675048828125,49.67271041870117],[7.686839103698787,49.669071197509766],[7.66631984710699,49.638900756835994],[7.72207880020153,49.650939941406364],[7.739159107208366,49.647548675537166],[7.728381156921444,49.63996887207031],[7.734827995300293,49.625358581543026],[7.706929206848201,49.621158599853516],[7.719120979309139,49.603012084960994],[7.708609104156608,49.588111877441406],[7.663139820098877,49.59101867675787],[7.652399063110352,49.57619094848633],[7.675610065460148,49.569179534912166],[7.67045879364025,49.55807876586914],[7.620580196380672,49.524299621582145],[7.55718994140625,49.519901275634766],[7.53908014297491,49.53078079223633],[7.523018836975041,49.508499145507926],[7.488540172577018,49.50080108642584],[7.456069946289062,49.46356201171875],[7.469150066375846,49.44157028198248],[7.417738914489746,49.42974853515619],[7.429561138153076,49.42626190185558],[7.402659893035889,49.39625930786144],[7.414450168609676,49.392791748046875],[7.397388935089111,49.388771057128906],[7.403889179229793,49.37784194946295],[7.369870185852108,49.36970901489269],[7.362909793853873,49.38798904418951],[7.293569087982291,49.397098541259766],[7.304471015930233,49.404830932617244],[7.297449111938477,49.42309188842779],[7.262350082397518,49.43307113647472],[7.255269050598201,49.45133972167969],[7.310669898986873,49.478969573974666],[7.286650180816707,49.493068695068416],[7.28526878356945,49.511550903320426],[7.312919139862061,49.52717971801758],[7.311830043792725,49.54196929931646],[7.282810211181641,49.54483032226568],[7.281969070434513,49.55593109130865],[7.327741146087646,49.56093978881836],[7.365088939666805,49.60261154174816],[7.446780204772892,49.59648895263672],[7.451059818267765,49.618709564208984],[7.491498947143555,49.626441955566406],[7.494170188903752,49.67090988159191],[7.481679916381893,49.68191909790045],[7.534279823303166,49.682430267333984],[7.532070159912053,49.712162017822266]]]}},{"type":"Feature","properties":{"name":"Landau Städte","type":"Kreisfreie Städte"},"geometry":{"type":"MultiPolygon","coordinates":[[[[8.112210273742733,49.23577880859392],[8.163540840148983,49.22626113891607],[8.1590194702149,49.20759201049816],[8.187148094177417,49.20849990844732],[8.17072868347168,49.20055007934582],[8.183998107910213,49.16761016845709],[8.110300064087028,49.17277145385742],[8.071629524231241,49.15689849853521],[8.05945873260498,49.171379089355696],[8.07555866241455,49.186618804931754],[8.024259567260742,49.19269943237333],[8.068838119506779,49.204940795898665],[8.062118530273494,49.223258972168196],[8.112210273742733,49.23577880859392]]],[[[7.926729202270735,49.3160285949707],[7.944919109344653,49.29428863525402],[7.96753978729248,49.29479980468756],[7.975058078766153,49.261741638183594],[7.928969860076847,49.27550888061535],[7.950991153717212,49.28704071044933],[7.877571105956974,49.28190994262718],[7.882040023803768,49.304111480713004],[7.870308876037882,49.31126022338867],[7.926729202270735,49.3160285949707]]]]}},{"type":"Feature","properties":{"name":"Ludwigshafen Städte","type":"Kreisfreie Städte"},"geometry":{"type":"Polygon","coordinates":[[[8.424960136413631,49.541358947753906],[8.467529296874943,49.473041534423885],[8.445588111877555,49.450260162353516],[8.474469184875602,49.44026184082031],[8.395190238952694,49.430141448974666],[8.359199523925781,49.47299957275402],[8.314219474792594,49.46044921874994],[8.302180290222282,49.47476196289057],[8.369499206542969,49.499069213867244],[8.396109580993766,49.54774856567383],[8.424960136413631,49.541358947753906]]]}},{"type":"Feature","properties":{"name":"Neustadt Städte","type":"Kreisfreie Städte"},"geometry":{"type":"Polygon","coordinates":[[[8.004529953003043,49.340011596679744],[8.031859397888127,49.35549163818371],[8.099150657653922,49.36112976074219],[8.10994911193842,49.36886215209961],[8.098489761352482,49.37220001220703],[8.103019714355412,49.39081192016607],[8.126129150390625,49.38045120239258],[8.136268615722656,49.399250030517635],[8.22758865356451,49.38011932373058],[8.217780113220329,49.353931427001896],[8.230069160461483,49.33586883544933],[8.321469306945858,49.31330108642584],[8.198589324951229,49.29777908325201],[8.203300476074332,49.31275177001959],[8.033989906311149,49.31861877441412],[8.004529953003043,49.340011596679744]]]}},{"type":"Feature","properties":{"name":"Rhein-Pfalz-Kreis","type":"Landkreise"},"geometry":{"type":"Polygon","coordinates":[[[8.417169570922965,49.596260070800724],[8.429441452026424,49.57460021972662],[8.411858558654728,49.58504867553722],[8.38967037200922,49.56592178344732],[8.36077880859375,49.572319030761776],[8.344539642334098,49.549709320068416],[8.315838813781738,49.552452087402344],[8.327879905700627,49.538120269775504],[8.311410903930664,49.522869110107536],[8.31320858001709,49.48247909545893],[8.301840782165584,49.482120513916016],[8.314219474792594,49.46044921874994],[8.359199523925781,49.47299957275402],[8.395190238952694,49.430141448974666],[8.474180221557617,49.44758987426758],[8.508589744567928,49.44147872924799],[8.498559951782283,49.404441833496094],[8.464948654174918,49.39220046997076],[8.465539932250977,49.37752914428722],[8.498978614807243,49.393428802490234],[8.49458980560297,49.36024856567383],[8.472559928893986,49.34471893310547],[8.466138839721623,49.3628501892091],[8.494299888610897,49.367580413818416],[8.448859214782715,49.369548797607536],[8.443828582763672,49.3546714782716],[8.42008018493658,49.37953948974621],[8.376350402831974,49.34482192993164],[8.410908699035701,49.33135986328125],[8.399979591369743,49.323589324951286],[8.406498908996639,49.30540847778326],[8.469329833984432,49.289379119873104],[8.414708137512264,49.254032135009766],[8.368800163268986,49.27075195312506],[8.36802864074707,49.28549957275402],[8.31663894653326,49.29833984375],[8.327678680419922,49.3024520874024],[8.296609878540096,49.35668945312494],[8.30149936676031,49.371620178222656],[8.266669273376465,49.388839721679744],[8.277779579162598,49.392910003662166],[8.259319305420036,49.42177200317394],[8.242548942565918,49.41751861572277],[8.235748291015739,49.43941116333008],[8.286358833313045,49.44847106933594],[8.273599624633732,49.47748947143566],[8.250348091125602,49.487770080566406],[8.278238296508789,49.499721527099666],[8.25946044921875,49.53588867187506],[8.287618637084904,49.54415893554699],[8.28567981719965,49.58824157714838],[8.348448753357047,49.59399032592779],[8.353589057922306,49.60887908935547],[8.417169570922965,49.596260070800724]]]}},{"type":"Feature","properties":{"name":"Speyer Spires Städte","type":"Kreisfreie Städte"},"geometry":{"type":"Polygon","coordinates":[[[8.48605918884283,49.29372024536133],[8.406498908996639,49.30540847778326],[8.399979591369743,49.323589324951286],[8.410908699035701,49.33135986328125],[8.376350402831974,49.34482192993164],[8.42008018493658,49.37953948974621],[8.443828582763672,49.3546714782716],[8.448859214782715,49.369548797607536],[8.494299888610897,49.367580413818416],[8.466138839721623,49.3628501892091],[8.472559928893986,49.34471893310547],[8.450428962707633,49.332851409912166],[8.485418319702148,49.308422088623104],[8.48605918884283,49.29372024536133]]]}},{"type":"Feature","properties":{"name":"Südliche Weinstraße","type":"Landkreise"},"geometry":{"type":"Polygon","coordinates":[[[8.004529953003043,49.340011596679744],[8.033989906311149,49.31861877441412],[8.203300476074332,49.31275177001959],[8.198589324951229,49.29777908325201],[8.327678680419922,49.3024520874024],[8.234490394592285,49.26200103759771],[8.24327754974371,49.210418701171875],[8.22084045410162,49.20962905883795],[8.217498779296875,49.172431945800895],[8.262369155883789,49.17403030395519],[8.265118598937988,49.12958908081066],[8.225858688354492,49.128189086914006],[8.215768814087028,49.10927963256836],[8.168898582458553,49.13745117187506],[8.12399959564209,49.13240051269531],[8.125749588012809,49.102798461914176],[8.103348731994686,49.098480224609375],[8.109649658203239,49.087532043457145],[8.059249877929744,49.07518005371094],[8.060070037841797,49.060420989990234],[8.076898574829215,49.0644912719726],[8.074590682983398,49.00157928466797],[7.976319313049373,49.028301239013786],[7.937040328979435,49.05623245239258],[7.915270805358887,49.04190826416021],[7.886448383331356,49.047138214111385],[7.899710178375358,49.079280853271484],[7.887959003448486,49.086448669433594],[7.921091079712028,49.10557937622082],[7.851348876953182,49.13381195068365],[7.867229938507137,49.15626907348644],[7.896221160888672,49.14572906494152],[7.912468910217399,49.16080856323248],[7.922839164734,49.17947006225586],[7.899339199066219,49.19379043579107],[7.921050071716252,49.212650299072266],[7.904028892517204,49.21232986450201],[7.914979934692496,49.219909667968864],[7.908510208129996,49.23453903198242],[7.868599891662711,49.237499237060604],[7.884829998016357,49.25254058837902],[7.83378791809082,49.251609802246094],[7.833000183105469,49.26634979248047],[7.928161144256705,49.29024887084961],[7.950991153717041,49.28704071044933],[7.928769111633414,49.27919006347662],[7.946559906005859,49.264801025390625],[7.975058078765983,49.261741638183594],[7.96753978729248,49.29479980468756],[7.944919109344482,49.29428863525402],[7.943479061126709,49.320079803466854],[8.004529953003043,49.340011596679744]],[[8.106579780578556,49.235618591308594],[8.062118530273494,49.223258972168026],[8.068838119506779,49.204940795898494],[8.024259567260742,49.19269943237316],[8.07555866241455,49.186618804931754],[8.05945873260498,49.171379089355526],[8.07162952423107,49.15689849853521],[8.110300064087028,49.17277145385742],[8.183998107910213,49.16761016845709],[8.17072868347168,49.20055007934582],[8.187148094177246,49.20849990844732],[8.1590194702149,49.20759201049816],[8.157690048217887,49.22977066040039],[8.106579780578556,49.235618591308594]]]}},{"type":"Feature","properties":{"name":"Südwestpfalz","type":"Landkreise"},"geometry":{"type":"Polygon","coordinates":[[[7.409890174865836,49.37427139282232],[7.486690044403133,49.34584045410156],[7.508829116821346,49.3608512878418],[7.527328968048096,49.33895874023432],[7.566629886627311,49.35420989990229],[7.582619190216008,49.37652969360357],[7.611030101776123,49.38061141967785],[7.611801147460994,49.36587905883795],[7.634829044342098,49.362541198730526],[7.635769844055233,49.344139099121094],[7.675580024719238,49.344760894775504],[7.676137924194336,49.33372116088867],[7.772018909454289,49.34637069702154],[7.773560047149658,49.3169212341308],[7.796628952026481,49.309951782226676],[7.863449096679801,49.333251953125],[7.882040023803768,49.304111480713004],[7.877768993377742,49.27822113037115],[7.843948841094971,49.27392196655279],[7.83378791809082,49.251609802246094],[7.884829998016357,49.25254058837902],[7.868599891662711,49.237499237060604],[7.908510208129996,49.23453903198242],[7.914979934692496,49.219909667968864],[7.904028892517204,49.21232986450201],[7.921050071716252,49.212650299072266],[7.899339199066219,49.19379043579107],[7.922839164734,49.17947006225586],[7.912468910217399,49.16080856323248],[7.896221160888672,49.14572906494152],[7.867229938507137,49.15626907348644],[7.851160049438477,49.137512207031364],[7.863479137420711,49.11925125122076],[7.908949851989803,49.120121002197266],[7.921091079712028,49.10557937622082],[7.887959003448486,49.086448669433594],[7.899710178375358,49.079280853271484],[7.883800029754696,49.05680084228527],[7.895559787750187,49.04961013793951],[7.867407798767204,49.033493041992244],[7.794681549072379,49.06429290771479],[7.766453742981071,49.04668045043945],[7.695848464965763,49.056301116943416],[7.671083927154598,49.045970916748104],[7.635286331176815,49.05416870117199],[7.627396106720084,49.07339859008789],[7.531178951263485,49.097133636474666],[7.489583015441895,49.13652801513683],[7.503565311431885,49.150531768798885],[7.491343021392822,49.168510437011776],[7.437325000762939,49.16459274291992],[7.445586204528809,49.184024810791016],[7.353888988494987,49.17060852050787],[7.323779106140137,49.19895172119135],[7.334128856658936,49.21406173706066],[7.43057107925415,49.22713851928711],[7.43563890457159,49.23826980590826],[7.40651893615717,49.24528884887701],[7.427889823913517,49.27138137817383],[7.456388950347957,49.2754020690918],[7.409080982208252,49.29687881469738],[7.413209915161133,49.32273101806652],[7.384489059448185,49.322151184082145],[7.411569118499756,49.34849929809576],[7.398619174957332,49.37036132812506],[7.409890174865836,49.37427139282232]]]}},{"type":"Feature","properties":{"name":"Worms Städte","type":"Kreisfreie Städte"},"geometry":{"type":"Polygon","coordinates":[[[8.452719688415584,49.72991180419933],[8.36192989349371,49.690170288085994],[8.39341926574707,49.617549896240234],[8.417169570922965,49.596260070800724],[8.353589057922306,49.60887908935547],[8.348448753357047,49.59399032592779],[8.262820243835506,49.58750915527344],[8.24354076385498,49.63473892211914],[8.248629570007267,49.64963912963873],[8.282859802246207,49.654441833496094],[8.258978843689079,49.675781250000114],[8.264260292053223,49.6870002746582],[8.350709915161133,49.682441711425895],[8.354668617248535,49.73049163818371],[8.452719688415584,49.72991180419933]]]}}]}